CCSDS_OMM_VERS = 2.0
CREATION_DATE  = 
ORIGINATOR     = 

OBJECT_NAME    = STARLINK-36870
OBJECT_ID      = 2026-035U
CENTER_NAME    = EARTH
REF_FRAME      = TEME
TIME_SYSTEM    = UTC
MEAN_ELEMENT_THEORY = SGP/SGP4

EPOCH          = 2026-03-04T13:25:47.799264
MEAN_MOTION    = 16.00269203
ECCENTRICITY   = .00008913
INCLINATION    = 97.2760
RA_OF_ASC_NODE = 355.5181
ARG_OF_PERICENTER = 38.1993
MEAN_ANOMALY   = 321.9349

EPHEMERIS_TYPE = 0
CLASSIFICATION_TYPE = U
NORAD_CAT_ID   = 67897
ELEMENT_SET_NO = 999
REV_AT_EPOCH   = 302
BSTAR          = -.51056016E-3
MEAN_MOTION_DOT = -.263452E-2
MEAN_MOTION_DDOT = .27714169E-4

CCSDS_OMM_VERS = 2.0
CREATION_DATE  = 
ORIGINATOR     = 

OBJECT_NAME    = STARLINK-36810
OBJECT_ID      = 2026-035V
CENTER_NAME    = EARTH
REF_FRAME      = TEME
TIME_SYSTEM    = UTC
MEAN_ELEMENT_THEORY = SGP/SGP4

EPOCH          = 2026-03-04T07:24:41.042304
MEAN_MOTION    = 16.00780605
ECCENTRICITY   = .00009567
INCLINATION    = 97.2753
RA_OF_ASC_NODE = 355.2471
ARG_OF_PERICENTER = 112.9016
MEAN_ANOMALY   = 247.2364

EPHEMERIS_TYPE = 0
CLASSIFICATION_TYPE = U
NORAD_CAT_ID   = 67898
ELEMENT_SET_NO = 999
REV_AT_EPOCH   = 298
BSTAR          = -.5282792E-3
MEAN_MOTION_DOT = -.280598E-2
MEAN_MOTION_DDOT = .31236518E-4

CCSDS_OMM_VERS = 2.0
CREATION_DATE  = 
ORIGINATOR     = 

OBJECT_NAME    = STARLINK-36878
OBJECT_ID      = 2026-035W
CENTER_NAME    = EARTH
REF_FRAME      = TEME
TIME_SYSTEM    = UTC
MEAN_ELEMENT_THEORY = SGP/SGP4

EPOCH          = 2026-03-04T13:23:02.390784
MEAN_MOTION    = 16.00563329
ECCENTRICITY   = .00009576
INCLINATION    = 97.2744
RA_OF_ASC_NODE = 355.5215
ARG_OF_PERICENTER = 102.8484
MEAN_ANOMALY   = 257.2902

EPHEMERIS_TYPE = 0
CLASSIFICATION_TYPE = U
NORAD_CAT_ID   = 67899
ELEMENT_SET_NO = 999
REV_AT_EPOCH   = 302
BSTAR          = -.6215772E-3
MEAN_MOTION_DOT = -.325919E-2
MEAN_MOTION_DDOT = .40945512E-4

CCSDS_OMM_VERS = 2.0
CREATION_DATE  = 
ORIGINATOR     = 

OBJECT_NAME    = STARLINK-36361
OBJECT_ID      = 2026-035X
CENTER_NAME    = EARTH
REF_FRAME      = TEME
TIME_SYSTEM    = UTC
MEAN_ELEMENT_THEORY = SGP/SGP4

EPOCH          = 2026-03-04T13:22:01.656768
MEAN_MOTION    = 16.00794751
ECCENTRICITY   = .00002754
INCLINATION    = 97.2745
RA_OF_ASC_NODE = 355.5225
ARG_OF_PERICENTER = 132.9674
MEAN_ANOMALY   = 227.1628

EPHEMERIS_TYPE = 0
CLASSIFICATION_TYPE = U
NORAD_CAT_ID   = 67900
ELEMENT_SET_NO = 999
REV_AT_EPOCH   = 302
BSTAR          = -.13386519E-3
MEAN_MOTION_DOT = -.71718E-3
MEAN_MOTION_DDOT = .4195522E-5

CCSDS_OMM_VERS = 2.0
CREATION_DATE  = 
ORIGINATOR     = 

OBJECT_NAME    = STARLINK-36336
OBJECT_ID      = 2026-035Y
CENTER_NAME    = EARTH
REF_FRAME      = TEME
TIME_SYSTEM    = UTC
MEAN_ELEMENT_THEORY = SGP/SGP4

EPOCH          = 2026-03-04T08:48:57.296448
MEAN_MOTION    = 16.01262092
ECCENTRICITY   = .00017766
INCLINATION    = 97.2744
RA_OF_ASC_NODE = 355.3203
ARG_OF_PERICENTER = 37.9588
MEAN_ANOMALY   = 322.1816

EPHEMERIS_TYPE = 0
CLASSIFICATION_TYPE = U
NORAD_CAT_ID   = 67901
ELEMENT_SET_NO = 999
REV_AT_EPOCH   = 299
BSTAR          = -.23903274E-3
MEAN_MOTION_DOT = -.130963E-2
MEAN_MOTION_DDOT = .8758232E-5

CCSDS_OMM_VERS = 2.0
CREATION_DATE  = 
ORIGINATOR     = 

OBJECT_NAME    = STARLINK-36876
OBJECT_ID      = 2026-035Z
CENTER_NAME    = EARTH
REF_FRAME      = TEME
TIME_SYSTEM    = UTC
MEAN_ELEMENT_THEORY = SGP/SGP4

EPOCH          = 2026-03-04T00:00:00.999648
MEAN_MOTION    = 16.01665709
ECCENTRICITY   = .00010918
INCLINATION    = 97.2750
RA_OF_ASC_NODE = 354.9178
ARG_OF_PERICENTER = 118.7727
MEAN_ANOMALY   = 276.8029

EPHEMERIS_TYPE = 0
CLASSIFICATION_TYPE = U
NORAD_CAT_ID   = 67902
ELEMENT_SET_NO = 999
REV_AT_EPOCH   = 284
BSTAR          = -.19706307E-2
MEAN_MOTION_DOT = -.1093955E-1
MEAN_MOTION_DDOT = .39444628E-3

CCSDS_OMM_VERS = 2.0
CREATION_DATE  = 
ORIGINATOR     = 

OBJECT_NAME    = STARLINK-36257
OBJECT_ID      = 2026-035AA
CENTER_NAME    = EARTH
REF_FRAME      = TEME
TIME_SYSTEM    = UTC
MEAN_ELEMENT_THEORY = SGP/SGP4

EPOCH          = 2026-03-04T07:20:09.786048
MEAN_MOTION    = 16.01284235
ECCENTRICITY   = .00006333
INCLINATION    = 97.2739
RA_OF_ASC_NODE = 355.2501
ARG_OF_PERICENTER = 110.2986
MEAN_ANOMALY   = 249.8362

EPHEMERIS_TYPE = 0
CLASSIFICATION_TYPE = U
NORAD_CAT_ID   = 67903
ELEMENT_SET_NO = 999
REV_AT_EPOCH   = 298
BSTAR          = -.567965E-3
MEAN_MOTION_DOT = -.310406E-2
MEAN_MOTION_DDOT = .37765238E-4

CCSDS_OMM_VERS = 2.0
CREATION_DATE  = 
ORIGINATOR     = 

OBJECT_NAME    = STARLINK-36814
OBJECT_ID      = 2026-036A
CENTER_NAME    = EARTH
REF_FRAME      = TEME
TIME_SYSTEM    = UTC
MEAN_ELEMENT_THEORY = SGP/SGP4

EPOCH          = 2026-03-04T12:00:00.999648
MEAN_MOTION    = 15.81943413
ECCENTRICITY   = .00027177
INCLINATION    = 42.9946
RA_OF_ASC_NODE = 281.6144
ARG_OF_PERICENTER = 264.3718
MEAN_ANOMALY   = 256.6068

EPHEMERIS_TYPE = 0
CLASSIFICATION_TYPE = U
NORAD_CAT_ID   = 67904
ELEMENT_SET_NO = 999
REV_AT_EPOCH   = 281
BSTAR          = .34458628E-3
MEAN_MOTION_DOT = .72396E-3
MEAN_MOTION_DDOT = 0

CCSDS_OMM_VERS = 2.0
CREATION_DATE  = 
ORIGINATOR     = 

OBJECT_NAME    = STARLINK-36729
OBJECT_ID      = 2026-036B
CENTER_NAME    = EARTH
REF_FRAME      = TEME
TIME_SYSTEM    = UTC
MEAN_ELEMENT_THEORY = SGP/SGP4

EPOCH          = 2026-03-04T12:00:00.999648
MEAN_MOTION    = 15.81939261
ECCENTRICITY   = .00022688
INCLINATION    = 42.9960
RA_OF_ASC_NODE = 281.6030
ARG_OF_PERICENTER = 264.3512
MEAN_ANOMALY   = 260.8978

EPHEMERIS_TYPE = 0
CLASSIFICATION_TYPE = U
NORAD_CAT_ID   = 67905
ELEMENT_SET_NO = 999
REV_AT_EPOCH   = 281
BSTAR          = .35735568E-3
MEAN_MOTION_DOT = .75102E-3
MEAN_MOTION_DDOT = 0

CCSDS_OMM_VERS = 2.0
CREATION_DATE  = 
ORIGINATOR     = 

OBJECT_NAME    = STARLINK-36763
OBJECT_ID      = 2026-036C
CENTER_NAME    = EARTH
REF_FRAME      = TEME
TIME_SYSTEM    = UTC
MEAN_ELEMENT_THEORY = SGP/SGP4

EPOCH          = 2026-03-04T12:00:00.999648
MEAN_MOTION    = 15.81949787
ECCENTRICITY   = .00017709
INCLINATION    = 42.9960
RA_OF_ASC_NODE = 281.5923
ARG_OF_PERICENTER = 260.8035
MEAN_ANOMALY   = 268.7105

EPHEMERIS_TYPE = 0
CLASSIFICATION_TYPE = U
NORAD_CAT_ID   = 67906
ELEMENT_SET_NO = 999
REV_AT_EPOCH   = 281
BSTAR          = .28860543E-3
MEAN_MOTION_DOT = .60475E-3
MEAN_MOTION_DDOT = 0

CCSDS_OMM_VERS = 2.0
CREATION_DATE  = 
ORIGINATOR     = 

OBJECT_NAME    = STARLINK-36742
OBJECT_ID      = 2026-036D
CENTER_NAME    = EARTH
REF_FRAME      = TEME
TIME_SYSTEM    = UTC
MEAN_ELEMENT_THEORY = SGP/SGP4

EPOCH          = 2026-03-04T12:00:00.999648
MEAN_MOTION    = 15.81936791
ECCENTRICITY   = .00024892
INCLINATION    = 42.9960
RA_OF_ASC_NODE = 281.5816
ARG_OF_PERICENTER = 252.0721
MEAN_ANOMALY   = 281.7232

EPHEMERIS_TYPE = 0
CLASSIFICATION_TYPE = U
NORAD_CAT_ID   = 67907
ELEMENT_SET_NO = 999
REV_AT_EPOCH   = 281
BSTAR          = .28871855E-3
MEAN_MOTION_DOT = .60467E-3
MEAN_MOTION_DDOT = 0

CCSDS_OMM_VERS = 2.0
CREATION_DATE  = 
ORIGINATOR     = 

OBJECT_NAME    = STARLINK-36827
OBJECT_ID      = 2026-036E
CENTER_NAME    = EARTH
REF_FRAME      = TEME
TIME_SYSTEM    = UTC
MEAN_ELEMENT_THEORY = SGP/SGP4

EPOCH          = 2026-03-04T12:00:00.999648
MEAN_MOTION    = 15.81937909
ECCENTRICITY   = .00021365
INCLINATION    = 42.9944
RA_OF_ASC_NODE = 281.5708
ARG_OF_PERICENTER = 249.9551
MEAN_ANOMALY   = 288.1007

EPHEMERIS_TYPE = 0
CLASSIFICATION_TYPE = U
NORAD_CAT_ID   = 67908
ELEMENT_SET_NO = 999
REV_AT_EPOCH   = 281
BSTAR          = .47119577E-3
MEAN_MOTION_DOT = .99471E-3
MEAN_MOTION_DDOT = 0

